[{"OBJECT_NAME":"HULIANWANG DIGUI-43","OBJECT_ID":"2025-162D","EPOCH":"2026-03-09T21:42:17.851392","MEAN_MOTION":13.29333399,"ECCENTRICITY":0.00010113,"INCLINATION":49.9975,"RA_OF_ASC_NODE":261.824,"ARG_OF_PERICENTER":90.2624,"MEAN_ANOMALY":269.8364,"EPHEMERIS_TYPE":0,"CLASSIFICATION_TYPE":"U","NORAD_CAT_ID":65046,"ELEMENT_SET_NO":999,"REV_AT_EPOCH":3015,"BSTAR":0.00010414466,"MEAN_MOTION_DOT":-7.6e-7,"MEAN_MOTION_DDOT":0},{"OBJECT_NAME":"COSMOS 2251 DEB","OBJECT_ID":"1993-036AMC","EPOCH":"2026-03-08T09:07:10.094880","MEAN_MOTION":13.75587155,"ECCENTRICITY":0.03069032,"INCLINATION":73.9712,"RA_OF_ASC_NODE":205.3974,"ARG_OF_PERICENTER":100.0195,"MEAN_ANOMALY":294.6884,"EPHEMERIS_TYPE":0,"CLASSIFICATION_TYPE":"U","NORAD_CAT_ID":35585,"ELEMENT_SET_NO":999,"REV_AT_EPOCH":65241,"BSTAR":0.0026038262,"MEAN_MOTION_DOT":3.522e-5,"MEAN_MOTION_DDOT":0}]
